QIANFAN-17              
1 60395U 24140S   26009.58211478  .00000151  00000+0  21431-3 0  9997
2 60395  88.9791 296.5597 0016176 120.3209 239.9545 13.50984071 71898
QIANFAN-18              
1 60396U 24140T   26009.56152656  .00000162  00000+0  23236-3 0  9995
2 60396  88.9783 296.0935 0015856 104.3972 255.8941 13.50984134 71284
QIANFAN-19              
1 61552U 24185A   26009.60200767  .00000510  00000+0  25950-3 0  9993
2 61552  88.9799  74.7522 0006255 196.7900 163.3081 14.14328781 73605
QIANFAN-20              
1 61553U 24185B   26009.60023665  .00000513  00000+0  28896-3 0  9999
2 61553  88.9798  75.1044 0004159 245.1068 114.9683 14.08876806 73412
QIANFAN-21              
1 61554U 24185C   26009.60409564  .00000614  00000+0  26814-3 0  9996
2 61554  88.9713  73.7190 0008363 271.0217  89.0017 14.22651477 73932
QIANFAN-22              
1 61555U 24185D   26009.65061831  .00000200  00000+0  16136-3 0  9990
2 61555  88.9782  76.1919 0004383 266.9692  93.0978 13.86315157 72800
QIANFAN-23              
1 61556U 24185E   26009.60882138  .00000464  00000+0  22659-3 0  9996
2 61556  88.9790  74.5478 0006523 211.0434 149.0370 14.16323739 73690
QIANFAN-24              
1 61557U 24185F   26009.65357660  .00000701  00000+0  30021-3 0  9995
2 61557  88.9772  73.9019 0008978 193.2520 166.8438 14.23853123 73996
